{"type": "FeatureCollection", "features": [{"type": "Feature", "properties": {"norad_id": 37846, "name": "GSAT0101 (GALILEO-PFM)", "group": "galileo", "lat": -54.026695368927115, "lon": -130.2571195240516, "alt_km": 23223.972968194073, "timestamp": "2025-12-26T19:22:39.169603+00:00", "meta": {"OBJECT_NAME": "GSAT0101 (GALILEO-PFM)", "OBJECT_ID": "2011-060A", "EPOCH": "2025-12-24T15:10:54.850656", "MEAN_MOTION": 1.70475643, "ECCENTRICITY": 0.00032614, "INCLINATION": 57.05, "RA_OF_ASC_NODE": 346.4975, "ARG_OF_PERICENTER": 321.0017, "MEAN_ANOMALY": 38.9828, "EPHEMERIS_TYPE": 0, "CLASSIFICATION_TYPE": "U", "NORAD_CAT_ID": 37846, "ELEMENT_SET_NO": 999, "REV_AT_EPOCH": 8814, "BSTAR": 0, "MEAN_MOTION_DOT": -6.1e-07, "MEAN_MOTION_DDOT": 0}, "tle": {"line1": "1 37846U 11060A   25358.63257929 -.00000061  00000+0  00000+0 0  9998", "line2": "2 37846  57.0500 346.4975 0003261 321.0017  38.9828  1.70475643 88147"}}, "geometry": {"type": "Point", "coordinates": [-130.2571195240516, -54.026695368927115]}}, {"type": "Feature", "properties": {"norad_id": 37847, "name": "GSAT0102 (GALILEO-FM2)", "group": "galileo", "lat": -46.48975472545666, "lon": -56.660483846482805, "alt_km": 23212.39496956597, "timestamp": "2025-12-26T19:22:39.169626+00:00", "meta": {"OBJECT_NAME": "GSAT0102 (GALILEO-FM2)", "OBJECT_ID": "2011-060B", "EPOCH": "2025-12-22T11:58:40.586304", "MEAN_MOTION": 1.70475957, "ECCENTRICITY": 0.00051595, "INCLINATION": 57.0512, "RA_OF_ASC_NODE": 346.5558, "ARG_OF_PERICENTER": 313.0615, "MEAN_ANOMALY": 223.0229, "EPHEMERIS_TYPE": 0, "CLASSIFICATION_TYPE": "U", "NORAD_CAT_ID": 37847, "ELEMENT_SET_NO": 999, "REV_AT_EPOCH": 8811, "BSTAR": 0, "MEAN_MOTION_DOT": -6.5e-07, "MEAN_MOTION_DDOT": 0}, "tle": {"line1": "1 37847U 11060B   25356.49908086 -.00000065  00000+0  00000+0 0  9992", "line2": "2 37847  57.0512 346.5558 0005159 313.0615 223.0229  1.70475957 88119"}}, "geometry": {"type": "Point", "coordinates": [-56.660483846482805, -46.48975472545666]}}, {"type": "Feature", "properties": {"norad_id": 38857, "name": "GSAT0103 (GALILEO-FM3)", "group": "galileo", "lat": -39.29661376302702, "lon": -39.811728831917534, "alt_km": 23220.1769428627, "timestamp": "2025-12-26T19:22:39.169641+00:00", "meta": {"OBJECT_NAME": "GSAT0103 (GALILEO-FM3)", "OBJECT_ID": "2012-055A", "EPOCH": "2025-12-22T21:54:43.252704", "MEAN_MOTION": 1.70473351, "ECCENTRICITY": 0.0002995, "INCLINATION": 55.698, "RA_OF_ASC_NODE": 106.3873, "ARG_OF_PERICENTER": 269.858, "MEAN_ANOMALY": 90.0891, "EPHEMERIS_TYPE": 0, "CLASSIFICATION_TYPE": "U", "NORAD_CAT_ID": 38857, "ELEMENT_SET_NO": 999, "REV_AT_EPOCH": 8200, "BSTAR": 0, "MEAN_MOTION_DOT": 1e-07, "MEAN_MOTION_DDOT": 0}, "tle": {"line1": "1 38857U 12055A   25356.91300061  .00000010  00000+0  00000+0 0  9994", "line2": "2 38857  55.6980 106.3873 0002995 269.8580  90.0891  1.70473351 82005"}}, "geometry": {"type": "Point", "coordinates": [-39.811728831917534, -39.29661376302702]}}, {"type": "Feature", "properties": {"norad_id": 40128, "name": "GSAT0201 (GALILEO 5)", "group": "galileo", "lat": -44.92165955335776, "lon": -139.33673728356317, "alt_km": 23133.517024216017, "timestamp": "2025-12-26T19:22:39.169654+00:00", "meta": {"OBJECT_NAME": "GSAT0201 (GALILEO 5)", "OBJECT_ID": "2014-050A", "EPOCH": "2025-12-25T20:43:24.583008", "MEAN_MOTION": 1.85519608, "ECCENTRICITY": 0.16491868, "INCLINATION": 49.0615, "RA_OF_ASC_NODE": 280.5285, "ARG_OF_PERICENTER": 172.7701, "MEAN_ANOMALY": 189.9925, "EPHEMERIS_TYPE": 0, "CLASSIFICATION_TYPE": "U", "NORAD_CAT_ID": 40128, "ELEMENT_SET_NO": 999, "REV_AT_EPOCH": 7510, "BSTAR": 0, "MEAN_MOTION_DOT": -4.2e-07, "MEAN_MOTION_DDOT": 0}, "tle": {"line1": "1 40128U 14050A   25359.86347897 -.00000042  00000+0  00000+0 0  9996", "line2": "2 40128  49.0615 280.5285 1649186 172.7701 189.9925  1.85519608 75101"}}, "geometry": {"type": "Point", "coordinates": [-139.33673728356317, -44.92165955335776]}}, {"type": "Feature", "properties": {"norad_id": 40129, "name": "GSAT0202 (GALILEO 6)", "group": "galileo", "lat": 48.59525957957537, "lon": -1.1626989017633669, "alt_km": 20877.411633181193, "timestamp": "2025-12-26T19:22:39.169666+00:00", "meta": {"OBJECT_NAME": "GSAT0202 (GALILEO 6)", "OBJECT_ID": "2014-050B", "EPOCH": "2025-12-26T02:52:20.314848", "MEAN_MOTION": 1.85520261, "ECCENTRICITY": 0.16497509, "INCLINATION": 49.0773, "RA_OF_ASC_NODE": 279.6017, "ARG_OF_PERICENTER": 173.5155, "MEAN_ANOMALY": 188.9707, "EPHEMERIS_TYPE": 0, "CLASSIFICATION_TYPE": "U", "NORAD_CAT_ID": 40129, "ELEMENT_SET_NO": 999, "REV_AT_EPOCH": 7727, "BSTAR": 0, "MEAN_MOTION_DOT": -4.2e-07, "MEAN_MOTION_DDOT": 0}, "tle": {"line1": "1 40129U 14050B   25360.11967957 -.00000042  00000+0  00000+0 0  9992", "line2": "2 40129  49.0773 279.6017 1649750 173.5155 188.9707  1.85520261 77272"}}, "geometry": {"type": "Point", "coordinates": [-1.1626989017633669, 48.59525957957537]}}, {"type": "Feature", "properties": {"norad_id": 40544, "name": "GSAT0203 (GALILEO 7)", "group": "galileo", "lat": 25.483507161688653, "lon": 4.438546653385318, "alt_km": 23227.110952295036, "timestamp": "2025-12-26T19:22:39.169678+00:00", "meta": {"OBJECT_NAME": "GSAT0203 (GALILEO 7)", "OBJECT_ID": "2015-017A", "EPOCH": "2025-12-24T23:56:01.378752", "MEAN_MOTION": 1.70475851, "ECCENTRICITY": 0.000645, "INCLINATION": 56.8433, "RA_OF_ASC_NODE": 346.3459, "ARG_OF_PERICENTER": 275.4973, "MEAN_ANOMALY": 84.4372, "EPHEMERIS_TYPE": 0, "CLASSIFICATION_TYPE": "U", "NORAD_CAT_ID": 40544, "ELEMENT_SET_NO": 999, "REV_AT_EPOCH": 6623, "BSTAR": 0, "MEAN_MOTION_DOT": -6.1e-07, "MEAN_MOTION_DDOT": 0}, "tle": {"line1": "1 40544U 15017A   25358.99723818 -.00000061  00000+0  00000+0 0  9997", "line2": "2 40544  56.8433 346.3459 0006450 275.4973  84.4372  1.70475851 66237"}}, "geometry": {"type": "Point", "coordinates": [4.438546653385318, 25.483507161688653]}}, {"type": "Feature", "properties": {"norad_id": 40545, "name": "GSAT0204 (GALILEO 8)", "group": "galileo", "lat": -42.66993655815524, "lon": -156.65647956693775, "alt_km": 23211.70779073006, "timestamp": "2025-12-26T19:22:39.169690+00:00", "meta": {"OBJECT_NAME": "GSAT0204 (GALILEO 8)", "OBJECT_ID": "2015-017B", "EPOCH": "2025-12-20T13:26:28.826304", "MEAN_MOTION": 1.70475697, "ECCENTRICITY": 0.0006133, "INCLINATION": 56.8522, "RA_OF_ASC_NODE": 346.4847, "ARG_OF_PERICENTER": 266.5447, "MEAN_ANOMALY": 93.3948, "EPHEMERIS_TYPE": 0, "CLASSIFICATION_TYPE": "U", "NORAD_CAT_ID": 40545, "ELEMENT_SET_NO": 999, "REV_AT_EPOCH": 2920, "BSTAR": 0, "MEAN_MOTION_DOT": -7e-07, "MEAN_MOTION_DDOT": 0}, "tle": {"line1": "1 40545U 15017B   25354.56005586 -.00000070  00000+0  00000+0 0  9992", "line2": "2 40545  56.8522 346.4847 0006133 266.5447  93.3948  1.70475697 29206"}}, "geometry": {"type": "Point", "coordinates": [-156.65647956693775, -42.66993655815524]}}, {"type": "Feature", "properties": {"norad_id": 40889, "name": "GSAT0205 (GALILEO 9)", "group": "galileo", "lat": 13.198365726023473, "lon": -124.16252570873435, "alt_km": 23204.274615687318, "timestamp": "2025-12-26T19:22:39.169702+00:00", "meta": {"OBJECT_NAME": "GSAT0205 (GALILEO 9)", "OBJECT_ID": "2015-045A", "EPOCH": "2025-12-23T06:16:38.782272", "MEAN_MOTION": 1.70473104, "ECCENTRICITY": 0.00062228, "INCLINATION": 55.0001, "RA_OF_ASC_NODE": 226.4673, "ARG_OF_PERICENTER": 42.5636, "MEAN_ANOMALY": 317.5856, "EPHEMERIS_TYPE": 0, "CLASSIFICATION_TYPE": "U", "NORAD_CAT_ID": 40889, "ELEMENT_SET_NO": 999, "REV_AT_EPOCH": 6401, "BSTAR": 0, "MEAN_MOTION_DOT": 7.3e-07, "MEAN_MOTION_DDOT": 0}, "tle": {"line1": "1 40889U 15045A   25357.26155998  .00000073  00000+0  00000+0 0  9999", "line2": "2 40889  55.0001 226.4673 0006222  42.5636 317.5856  1.70473104 64013"}}, "geometry": {"type": "Point", "coordinates": [-124.16252570873435, 13.198365726023473]}}, {"type": "Feature", "properties": {"norad_id": 40890, "name": "GSAT0206 (GALILEO 10)", "group": "galileo", "lat": -45.64673506372566, "lon": 92.14251875096429, "alt_km": 23239.009717140405, "timestamp": "2025-12-26T19:22:39.169713+00:00", "meta": {"OBJECT_NAME": "GSAT0206 (GALILEO 10)", "OBJECT_ID": "2015-045B", "EPOCH": "2025-12-25T05:48:23.394816", "MEAN_MOTION": 1.7047315, "ECCENTRICITY": 0.0004109, "INCLINATION": 54.9985, "RA_OF_ASC_NODE": 226.4076, "ARG_OF_PERICENTER": 41.5093, "MEAN_ANOMALY": 318.6128, "EPHEMERIS_TYPE": 0, "CLASSIFICATION_TYPE": "U", "NORAD_CAT_ID": 40890, "ELEMENT_SET_NO": 999, "REV_AT_EPOCH": 6407, "BSTAR": 0, "MEAN_MOTION_DOT": 7e-07, "MEAN_MOTION_DDOT": 0}, "tle": {"line1": "1 40890U 15045B   25359.24193744  .00000070  00000+0  00000+0 0  9999", "line2": "2 40890  54.9985 226.4076 0004109  41.5093 318.6128  1.70473150 64070"}}, "geometry": {"type": "Point", "coordinates": [92.14251875096429, -45.64673506372566]}}, {"type": "Feature", "properties": {"norad_id": 41174, "name": "GSAT0209 (GALILEO 12)", "group": "galileo", "lat": 33.827223695311865, "lon": -101.16368175281572, "alt_km": 23224.76703302568, "timestamp": "2025-12-26T19:22:39.169725+00:00", "meta": {"OBJECT_NAME": "GSAT0209 (GALILEO 12)", "OBJECT_ID": "2015-079A", "EPOCH": "2025-12-21T21:22:17.332896", "MEAN_MOTION": 1.70474556, "ECCENTRICITY": 0.00025231, "INCLINATION": 55.7178, "RA_OF_ASC_NODE": 106.13, "ARG_OF_PERICENTER": 342.7574, "MEAN_ANOMALY": 17.2091, "EPHEMERIS_TYPE": 0, "CLASSIFICATION_TYPE": "U", "NORAD_CAT_ID": 41174, "ELEMENT_SET_NO": 999, "REV_AT_EPOCH": 6175, "BSTAR": 0, "MEAN_MOTION_DOT": 5e-08, "MEAN_MOTION_DDOT": 0}, "tle": {"line1": "1 41174U 15079A   25355.89047839  .00000005  00000+0  00000+0 0  9990", "line2": "2 41174  55.7178 106.1300 0002523 342.7574  17.2091  1.70474556 61755"}}, "geometry": {"type": "Point", "coordinates": [-101.16368175281572, 33.827223695311865]}}]}